STARLINK-31734          
1 59534U 24074A   26068.12327256  .00000926  00000+0  43148-4 0  9993
2 59534  42.9996 335.8332 0000740 303.0667  57.0114 15.27590006106055
FLOCK 4G-25             
1 62646U 25009AP  26068.74572546  .00010373  00000+0  38902-3 0  9990
2 62646  97.4049 151.4141 0000828 316.3151  43.8023 15.27424196 63734
